OBJECT_NAME,OBJECT_ID,EPOCH,MEAN_MOTION,ECCENTRICITY,INCLINATION,RA_OF_ASC_NODE,ARG_OF_PERICENTER,MEAN_ANOMALY,EPHEMERIS_TYPE,CLASSIFICATION_TYPE,NORAD_CAT_ID,ELEMENT_SET_NO,REV_AT_EPOCH,BSTAR,MEAN_MOTION_DOT,MEAN_MOTION_DDOT
COSMOS 2534 (758),2019-030A,2026-06-29T15:50:49.664256,2.13102425,.00135177,64.3700,192.1964,275.0224,73.0621,0,U,44299,999,5518,0,.85E-6,0
BEIDOU-3 IGSO-2 (C39),2019-035A,2026-07-02T14:22:56.502912,1.00262088,.00395828,55.2498,158.7271,216.3055,240.4952,0,U,44337,999,2582,0,-.1E-5,0
GPS BIII-2  (PRN 18),2019-056A,2026-07-01T20:17:32.477856,2.00570204,.00627565,55.6295,330.5609,197.8313,333.9324,0,U,44506,999,5036,0,-.81E-6,0
BEIDOU-3 M24 (C46),2019-061A,2026-06-30T03:06:14.697792,1.86229317,.00085596,54.3970,182.2910,358.7023,1.3089,0,U,44542,999,4603,0,.71E-6,0
BEIDOU-3 M23 (C45),2019-061B,2026-06-30T19:06:58.681728,1.86227617,.00058418,54.3961,182.2371,339.8023,19.0264,0,U,44543,999,4604,0,.7E-6,0
EUTELSAT 5 WEST B (EGNOS/PRN 121),2019-067A,2026-07-02T07:06:52.905024,1.00271480,.00034276,0.0705,330.7489,130.2710,281.0395,0,U,44624,999,2458,0,-.32E-6,0
BEIDOU-3 M22 (C44),2019-078A,2026-07-02T02:48:48.341088,1.86227671,.00059581,53.9213,299.3025,49.9871,310.0853,0,U,44793,999,4492,0,-.61E-6,0
BEIDOU-3 M21 (C43),2019-078B,2026-06-27T23:04:25.677120,1.86227959,.00039786,53.8982,299.4091,49.1157,310.9195,0,U,44794,999,4485,0,-.87E-6,0
COSMOS 2544 (759),2019-088A,2026-07-01T13:50:06.486144,2.13103143,.00127216,65.5732,73.2504,256.6997,103.2222,0,U,44850,999,5102,0,-.12E-6,0
BEIDOU-3 M19 (C41),2019-090A,2026-06-29T13:27:35.879616,1.86231770,.0017294,56.5689,62.3817,297.3724,252.4111,0,U,44864,999,4446,0,-.55E-6,0
BEIDOU-3 M20 (C42),2019-090B,2026-06-29T09:50:57.937056,1.86231892,.00151468,56.5707,62.4211,311.8679,226.6408,0,U,44865,999,4444,0,-.56E-6,0
BEIDOU-3 G2 (C60),2020-017A,2026-07-02T16:10:11.224992,1.00271604,.00025905,2.8941,47.5678,45.2527,150.5300,0,U,45344,999,2341,0,-.131E-5,0
COSMOS 2545 (760),2020-018A,2026-06-29T10:12:09.408960,2.13102698,.0008865,64.3471,311.9885,229.6303,130.2863,0,U,45358,999,4892,0,-.68E-6,0
BEIDOU-3 G3 (C61),2020-040A,2026-07-02T14:30:24.670944,1.00271694,.00024698,2.4834,67.4767,333.3148,208.0191,0,U,45807,999,2222,0,-.344E-5,0
GPS BIII-3  (PRN 23),2020-041A,2026-06-29T16:53:58.819200,2.00558736,.00655661,56.6686,28.4552,209.6569,153.6928,0,U,45854,999,4429,0,-.68E-6,0
GALAXY 30 (WAAS/PRN 135),2020-056C,2026-07-02T13:23:14.462592,1.00271482,.00021657,0.0213,27.0649,75.3952,253.9468,0,U,46114,999,2144,0,0,0
COSMOS 2547 (705K),2020-075A,2026-06-30T13:16:42.878784,2.13100012,.00093996,64.6009,192.0293,239.7356,120.2111,0,U,46805,999,4419,0,.81E-6,0
GPS BIII-4  (PRN 14),2020-078A,2026-07-01T06:33:33.963264,2.00565158,.0074038,53.9787,210.2073,207.5025,185.7090,0,U,46826,999,4179,0,.67E-6,0
GPS BIII-5  (PRN 11),2021-054A,2026-07-02T00:34:02.169408,2.00568335,.00259461,55.1671,331.8638,228.3850,172.9360,0,U,48859,999,3705,0,-.82E-6,0
QZS-1R (QZSS/PRN 196),2021-096A,2026-07-01T14:37:01.870752,1.00251244,.0756025,37.4893,79.3703,272.0403,280.4502,0,U,49336,999,1715,0,-.278E-5,0
GSAT0223 (GALILEO 27),2021-116A,2026-06-29T21:27:43.229376,1.70476494,.00017443,57.1569,341.3321,184.5600,173.8860,0,U,49809,999,2839,0,-.86E-6,0
GSAT0224 (GALILEO 28),2021-116B,2026-06-30T14:13:57.006624,1.70476570,.00014283,57.1567,341.3123,163.7362,16.1903,0,U,49810,999,2843,0,-.84E-6,0
COSMOS 2557 (706K),2022-075A,2026-06-29T07:25:57.374112,2.13102382,.00105914,64.2907,314.0587,272.5686,87.3025,0,U,52984,999,3097,0,-.7E-6,0
COSMOS 2559 (707K),2022-130A,2026-07-02T09:56:26.110176,2.13101800,.0012862,64.2615,314.0319,179.6594,180.3448,0,U,54031,999,2901,0,-.51E-6,0
COSMOS 2564 (761),2022-161A,2026-07-01T18:54:53.975808,2.13102081,.0012266,64.7430,192.2270,225.1049,134.8302,0,U,54377,999,2794,0,.8E-6,0
GPS BIII-6  (PRN 28),2023-009A,2026-07-01T18:20:00.000096,2.00571084,.00062623,55.1238,147.9465,318.3854,293.8670,0,U,55268,999,2553,0,.4E-6,0
BEIDOU-3 G4 (C62),2023-066A,2026-07-02T15:03:31.805280,1.00268803,.00050271,0.4710,335.3110,176.6863,134.5684,0,U,56564,999,1154,0,-.271E-5,0
NVS-01 (IRNSS-1J),2023-076A,2026-07-02T11:31:07.682592,1.00271962,.00029278,2.1319,243.6637,8.7610,330.4522,0,U,56759,999,1126,0,-.324E-5,0
COSMOS 2569 (703K),2023-114A,2026-06-30T09:25:27.591744,2.13103831,.00101962,65.3095,72.1752,296.5286,63.4269,0,U,57517,999,2254,0,-.2E-6,0
BEIDOU-3 M28 (C50),2023-207A,2026-07-02T08:01:10.012224,1.86229871,.00027824,55.7660,61.7922,356.6345,3.4321,0,U,58654,999,1712,0,-.4E-6,0
BEIDOU-3 M26 (C48),2023-207B,2026-07-02T03:09:33.613920,1.86229850,.00024801,55.7681,61.7855,322.6167,37.4340,0,U,58655,999,1710,0,-.41E-6,0
